IRIDIUM 26              
1 24903U 97043A   25134.90434608  .00000421  00000+0  13504-3 0  9992
2 24903  86.3930 124.6056 0002263  94.3082 265.8374 14.37118400452434
IRIDIUM 22              
1 24907U 97043E   25134.52797066  .00000365  00000+0  11893-3 0  9990
2 24907  86.3937 128.2733 0002344  90.1113 270.0352 14.35934818451942
DUMMY MASS 1            
1 24925U 97048A   25134.43306380  .00000414  00000+0  43210-4 0  9994
2 24925  86.3346 150.9356 0004205 264.0698  96.0048 14.86960128500118
DUMMY MASS 2            
1 24926U 97048B   25134.59151121  .00000377  00000+0  39258-4 0  9998
2 24926  86.3347 152.4626 0005030 280.9668  79.0991 14.86712769499917
IRIDIUM 29              
1 24944U 97051A   25134.56277361  .00000396  00000+0  12859-3 0  9992
2 24944  86.3969 157.9980 0002406  86.8849 273.2623 14.36439989448445
IRIDIUM 33              
1 24946U 97051C   25134.57752700  .00000288  00000+0  94412-4 0  9996
2 24946  86.3883 157.2492 0007875 171.5618 188.5712 14.34873286447934
IRIDIUM 28              
1 24948U 97051E   25134.55807161  .00000339  00000+0  10690-3 0  9990
2 24948  86.3971 155.5365 0002240 102.8084 257.3364 14.37363456449081
IRIDIUM 36              
1 24967U 97056C   25134.66582171  .00000387  00000+0  12252-3 0  9998
2 24967  86.4012 187.0682 0002546  97.1776 262.9711 14.37584229447409
